{"fetched_at":"2026-07-16T17:47:08.527Z","source":"https://celestrak.org/NORAD/elements/gp.php?NAME=YAM&FORMAT=JSON","constellation":"earthdaily-constellation","records":[{"OBJECT_NAME":"YAM-10","OBJECT_ID":"2025-135BE","EPOCH":"2026-07-16T06:06:24.308928","CLASSIFICATION_TYPE":"U","MEAN_MOTION":14.91902803,"ECCENTRICITY":0.0001802,"INCLINATION":97.7753,"RA_OF_ASC_NODE":310.7074,"ARG_OF_PERICENTER":240.4469,"MEAN_ANOMALY":119.657,"EPHEMERIS_TYPE":0,"NORAD_CAT_ID":64580,"ELEMENT_SET_NO":999,"REV_AT_EPOCH":5819,"BSTAR":0.00010032766,"MEAN_MOTION_DOT":0.00000958,"MEAN_MOTION_DDOT":0},{"OBJECT_NAME":"YAM-11","OBJECT_ID":"2026-100M","EPOCH":"2026-07-16T04:31:36.539904","CLASSIFICATION_TYPE":"U","MEAN_MOTION":14.90571636,"ECCENTRICITY":0.00095487,"INCLINATION":97.7332,"RA_OF_ASC_NODE":93.9415,"ARG_OF_PERICENTER":358.0535,"MEAN_ANOMALY":2.0644,"EPHEMERIS_TYPE":0,"NORAD_CAT_ID":68991,"ELEMENT_SET_NO":999,"REV_AT_EPOCH":1101,"BSTAR":0.000086234816,"MEAN_MOTION_DOT":0.00000789,"MEAN_MOTION_DDOT":0},{"OBJECT_NAME":"YAM-16","OBJECT_ID":"2026-100N","EPOCH":"2026-07-16T04:49:11.427744","CLASSIFICATION_TYPE":"U","MEAN_MOTION":14.91516745,"ECCENTRICITY":0.00046739,"INCLINATION":97.7335,"RA_OF_ASC_NODE":94.0828,"ARG_OF_PERICENTER":59.9593,"MEAN_ANOMALY":300.2089,"EPHEMERIS_TYPE":0,"NORAD_CAT_ID":68992,"ELEMENT_SET_NO":999,"REV_AT_EPOCH":1102,"BSTAR":0.000091161418,"MEAN_MOTION_DOT":0.00000858,"MEAN_MOTION_DDOT":0},{"OBJECT_NAME":"YAM-13","OBJECT_ID":"2026-100P","EPOCH":"2026-07-16T05:04:11.231904","CLASSIFICATION_TYPE":"U","MEAN_MOTION":14.90412056,"ECCENTRICITY":0.00095088,"INCLINATION":97.7335,"RA_OF_ASC_NODE":94.0686,"ARG_OF_PERICENTER":355.3432,"MEAN_ANOMALY":4.7696,"EPHEMERIS_TYPE":0,"NORAD_CAT_ID":68993,"ELEMENT_SET_NO":999,"REV_AT_EPOCH":1102,"BSTAR":0.000077084137,"MEAN_MOTION_DOT":0.00000696,"MEAN_MOTION_DDOT":0},{"OBJECT_NAME":"YAM-15","OBJECT_ID":"2026-100T","EPOCH":"2026-07-16T04:44:31.267968","CLASSIFICATION_TYPE":"U","MEAN_MOTION":14.90654493,"ECCENTRICITY":0.00092965,"INCLINATION":97.7326,"RA_OF_ASC_NODE":94.0801,"ARG_OF_PERICENTER":9.0278,"MEAN_ANOMALY":351.1105,"EPHEMERIS_TYPE":0,"NORAD_CAT_ID":68997,"ELEMENT_SET_NO":999,"REV_AT_EPOCH":1102,"BSTAR":0.00008556437,"MEAN_MOTION_DOT":0.00000784,"MEAN_MOTION_DDOT":0},{"OBJECT_NAME":"YAM-12","OBJECT_ID":"2026-100Z","EPOCH":"2026-07-16T04:07:30.481248","CLASSIFICATION_TYPE":"U","MEAN_MOTION":14.90453143,"ECCENTRICITY":0.00098443,"INCLINATION":97.7311,"RA_OF_ASC_NODE":93.9429,"ARG_OF_PERICENTER":348.1945,"MEAN_ANOMALY":11.9041,"EPHEMERIS_TYPE":0,"NORAD_CAT_ID":69003,"ELEMENT_SET_NO":999,"REV_AT_EPOCH":1100,"BSTAR":0.00019107022,"MEAN_MOTION_DOT":0.0000181,"MEAN_MOTION_DDOT":0},{"OBJECT_NAME":"YAM-14","OBJECT_ID":"2026-100AE","EPOCH":"2026-07-15T23:07:21.990144","CLASSIFICATION_TYPE":"U","MEAN_MOTION":14.90348917,"ECCENTRICITY":0.0006075,"INCLINATION":97.7315,"RA_OF_ASC_NODE":93.7611,"ARG_OF_PERICENTER":35.2292,"MEAN_ANOMALY":324.9327,"EPHEMERIS_TYPE":0,"NORAD_CAT_ID":69008,"ELEMENT_SET_NO":999,"REV_AT_EPOCH":1097,"BSTAR":0.000069355,"MEAN_MOTION_DOT":0.0000062,"MEAN_MOTION_DDOT":0}]}
