YAM-10                  
1 64580U 25135BE  26197.25444802  .00000958  00000+0  10033-3 0  9994
2 64580  97.7753 310.7074 0001802 240.4469 119.6570 14.91902803 58194
YAM-11                  
1 68991U 26100M   26197.18861736  .00000789  00000+0  86235-4 0  9998
2 68991  97.7332  93.9415 0009548 358.0535   2.0644 14.90571636 11013
YAM-16                  
1 68992U 26100N   26197.20082671  .00000858  00000+0  91161-4 0  9996
2 68992  97.7335  94.0828 0004673  59.9593 300.2089 14.91516745 11020
YAM-13                  
1 68993U 26100P   26197.21124111  .00000696  00000+0  77084-4 0  9992
2 68993  97.7335  94.0686 0009508 355.3432   4.7696 14.90412056 11029
YAM-15                  
1 68997U 26100T   26197.19758412  .00000784  00000+0  85564-4 0  9990
2 68997  97.7326  94.0801 0009296   9.0278 351.1105 14.90654493 11024
YAM-12                  
1 69003U 26100Z   26197.17188057  .00001810  00000+0  19107-3 0  9999
2 69003  97.7311  93.9429 0009844 348.1945  11.9041 14.90453143 11005
YAM-14                  
1 69008U 26100AE  26196.96344896  .00000620  00000+0  69355-4 0  9994
2 69008  97.7315  93.7611 0006075  35.2292 324.9327 14.90348917 10978
